ONEWEB-0414             
1 50491U 21132Y   24248.60545179 -.00000030  00000+0 -10946-3 0  9992
2 50491  87.9075 104.9613 0001540  72.2689 287.8611 13.18683804135885
ONEWEB-0417             
1 50492U 21132Z   24248.61337377  .00000145  00000+0  33434-3 0  9995
2 50492  87.9082 104.9683 0001908  76.2179 283.9165 13.18685866135866
ONEWEB-0418             
1 50493U 21132AA  24248.62271813  .00000146  00000+0  33653-3 0  9993
2 50493  87.9079 104.9661 0002103  72.0816 288.0545 13.18685814135927
ONEWEB-0419             
1 50494U 21132AB  24249.17137709  .00000117  00000+0  26404-3 0  9994
2 50494  87.9073 104.8711 0002061  84.1680 275.9687 13.18684006137200
ONEWEB-0420             
1 50495U 21132AC  24248.68292380  .00000166  00000+0  38864-3 0  9994
2 50495  87.9075 104.9775 0001457  88.3596 271.7703 13.18686486135849
ONEWEB-0421             
1 50496U 21132AD  24248.60072478  .00000048  00000+0  88652-4 0  9991
2 50496  87.9082 104.9657 0001431  70.3722 289.7565 13.18684788135872
ONEWEB-0424             
1 50497U 21132AE  24248.63549440  .00000110  00000+0  24725-3 0  9993
2 50497  87.9078 104.9609 0002173  88.4378 271.7003 13.18684222135901
ONEWEB-0426             
1 50498U 21132AF  24248.67344006  .00000075  00000+0  15870-3 0  9990
2 50498  87.9073 104.9674 0001865  61.9573 298.1747 13.18685434135857
